[{"OBJECT_NAME":"STARLINK-5095","OBJECT_ID":"2023-083K","EPOCH":"2026-03-09T09:30:15.912000","MEAN_MOTION":15.02536581,"ECCENTRICITY":0.00013122,"INCLINATION":43.003,"RA_OF_ASC_NODE":83.5917,"ARG_OF_PERICENTER":271.8934,"MEAN_ANOMALY":88.1758,"EPHEMERIS_TYPE":0,"CLASSIFICATION_TYPE":"U","NORAD_CAT_ID":56885,"ELEMENT_SET_NO":999,"REV_AT_EPOCH":15162,"BSTAR":1.9598606e-5,"MEAN_MOTION_DOT":6.1e-7,"MEAN_MOTION_DDOT":0},{"OBJECT_NAME":"PSLV DEB","OBJECT_ID":"2001-049CS","EPOCH":"2026-03-09T17:28:51.612960","MEAN_MOTION":14.96014952,"ECCENTRICITY":0.00345383,"INCLINATION":98.0485,"RA_OF_ASC_NODE":147.0031,"ARG_OF_PERICENTER":251.2293,"MEAN_ANOMALY":231.4093,"EPHEMERIS_TYPE":0,"CLASSIFICATION_TYPE":"U","NORAD_CAT_ID":27146,"ELEMENT_SET_NO":999,"REV_AT_EPOCH":30162,"BSTAR":0.00055338741,"MEAN_MOTION_DOT":6.222e-5,"MEAN_MOTION_DDOT":0}]
